QIANFAN-17              
1 60395U 24140S   25323.55161350  .00000035  00000+0  35634-4 0  9997
2 60395  88.9747 301.8346 0013013 274.6493  85.3172 13.50972895 65002
QIANFAN-18              
1 60396U 24140T   25323.60508962  .00000046  00000+0  53476-4 0  9994
2 60396  88.9740 301.3643 0012311 254.4020 105.5772 13.50972899 64401
QIANFAN-19              
1 61552U 24185A   25323.59038613  .00000626  00000+0  32056-3 0  9991
2 61552  88.9814  80.5887 0007677  34.9936 325.1754 14.14261432 66395
QIANFAN-20              
1 61553U 24185B   25323.60443161  .00000724  00000+0  41192-3 0  9992
2 61553  88.9813  80.8876 0007362  68.9061 291.2909 14.08807895 66233
QIANFAN-21              
1 61554U 24185C   25323.60895119  .00000856  00000+0  37676-3 0  9995
2 61554  88.9730  79.6835 0012635  81.9853 278.2772 14.22562243 66689
QIANFAN-22              
1 61555U 24185D   25323.62031055  .00000196  00000+0  15840-3 0  9995
2 61555  88.9795  81.7742 0008282  73.8144 286.3938 13.86290676 65734
QIANFAN-23              
1 61556U 24185E   25323.59840247  .00000594  00000+0  29262-3 0  9998
2 61556  88.9806  80.4084 0008822  43.7576 316.4310 14.16260136 66471
QIANFAN-24              
1 61557U 24185F   25323.56086647  .00000806  00000+0  34641-3 0  9995
2 61557  88.9788  79.8555 0010023  26.2831 333.8867 14.23766603 66728
